NORAD_CAT_ID,OBJECT_NAME,OBJECT_TYPE,EPOCH,MEAN_MOTION,ECCENTRICITY,INCLINATION,RA_OF_ASC_NODE,ARG_OF_PERICENTER,MEAN_ANOMALY,BSTAR,MEAN_MOTION_DOT,MEAN_MOTION_DDOT,TLE_LINE0,TLE_LINE1,TLE_LINE2,SEMIMAJOR_AXIS,PERIOD,APOGEE,PERIGEE,DECAYED
52640.0,STARLINK-3977,PAYLOAD,2024-06-29 07:58:33,15.08844811,0.0001329,53.2152,155.0628,89.9594,270.1551,7.0918e-05,8.41e-06,0.0,0 STARLINK-3977,1 52640U 22052AU  24181.33233679  .00000841  00000-0  70918-4 0  9992,2 52640  53.2152 155.0628 0001329  89.9594 270.1551 15.08844811117777,6917.866,95.437,540.65,538.811,0.0
52640.0,STARLINK-3977,PAYLOAD,2024-06-29 15:55:29,15.08839193,0.000126,53.2142,153.5754,105.8306,254.2825,2.2441e-05,6.9e-07,0.0,0 STARLINK-3977,1 52640U 22052AU  24181.66354076  .00000069  00000-0  22441-4 0  9993,2 52640  53.2142 153.5754 0001260 105.8306 254.2825 15.08839193117822,6917.883,95.438,540.62,538.876,0.0
52640.0,STARLINK-3977,PAYLOAD,2024-06-30 04:38:35,15.08834166,0.0001399,53.2145,151.1983,95.2532,264.8619,1.7257e-05,-1.3e-07,0.0,0 STARLINK-3977,1 52640U 22052AU  24182.19346617 -.00000013  00000-0  17257-4 0  9993,2 52640  53.2145 151.1983 0001399  95.2532 264.8619 15.08834166118283,6917.898,95.438,540.731,538.795,0.0
52640.0,STARLINK-3977,PAYLOAD,2024-06-30 07:49:21,15.08837973,0.0001469,53.2153,150.6026,97.3345,262.7814,1.3705e-05,-7e-07,0.0,0 STARLINK-3977,1 52640U 22052AU  24182.32594391 -.00000070  00000-0  13705-4 0  9999,2 52640  53.2153 150.6026 0001469  97.3345 262.7814 15.08837973117920,6917.887,95.438,540.768,538.735,0.0
52640.0,STARLINK-3977,PAYLOAD,2024-07-01 04:29:21,15.08844445,0.0001347,53.2153,146.7373,89.9241,270.1906,8.3276e-05,1.038e-05,0.0,0 STARLINK-3977,1 52640U 22052AU  24183.18706001  .00001038  00000-0  83276-4 0  9991,2 52640  53.2153 146.7373 0001347  89.9241 270.1906 15.08844445118432,6917.867,95.437,540.664,538.8,0.0
52640.0,STARLINK-3977,PAYLOAD,2024-07-01 14:01:42,15.08802995,0.0001279,53.2148,144.9516,102.5541,257.5594,0.00067789,0.00010506,0.0,0 STARLINK-3977,1 52640U 22052AU  24183.58451502  .00010506  00000-0  67789-3 0  9998,2 52640  53.2148 144.9516 0001279 102.5541 257.5594 15.08802995118115,6917.994,95.44,540.743,538.974,0.0
52640.0,STARLINK-3977,PAYLOAD,2024-07-02 04:20:09,15.08837164,0.0001369,53.2159,142.2793,93.7201,266.3948,3.158e-05,2.15e-06,0.0,0 STARLINK-3977,1 52640U 22052AU  24184.18066863  .00000215  00000-0  31580-4 0  9994,2 52640  53.2159 142.2793 0001369  93.7201 266.3948 15.08837164118587,6917.889,95.438,540.701,538.807,0.0
52640.0,STARLINK-3977,PAYLOAD,2024-07-02 13:52:28,15.08837346,0.0001341,53.2156,140.4951,93.1117,267.0028,2.5972e-05,1.25e-06,0.0,0 STARLINK-3977,1 52640U 22052AU  24184.57810894  .00000125  00000-0  25972-4 0  9996,2 52640  53.2156 140.4951 0001341  93.1117 267.0028 15.08837346118264,6917.889,95.438,540.681,538.826,0.0
52640.0,STARLINK-3977,PAYLOAD,2024-07-02 20:14:01,15.08838555,0.0001247,53.2157,139.3055,93.8095,266.304,7.612e-05,9.24e-06,0.0,0 STARLINK-3977,1 52640U 22052AU  24184.84306715  .00000924  00000-0  76120-4 0  9996,2 52640  53.2157 139.3055 0001247  93.8095 266.3040 15.08838555118308,6917.885,95.438,540.612,538.887,0.0
52640.0,STARLINK-3977,PAYLOAD,2024-07-03 07:21:42,15.08849688,0.0001258,53.2158,137.2232,94.3793,265.7343,7.3685e-05,8.85e-06,0.0,0 STARLINK-3977,1 52640U 22052AU  24185.30673991  .00000885  00000-0  73685-4 0  9990,2 52640  53.2158 137.2232 0001258  94.3793 265.7343 15.08849688118753,6917.851,95.437,540.586,538.846,0.0
52640.0,STARLINK-3977,PAYLOAD,2024-07-03 13:43:14,15.08847895,0.0001248,53.216,136.0338,93.0404,267.0731,6.0692e-05,6.78e-06,0.0,0 STARLINK-3977,1 52640U 22052AU  24185.57170087  .00000678  00000-0  60692-4 0  9991,2 52640  53.2160 136.0338 0001248  93.0404 267.0731 15.08847895118411,6917.856,95.437,540.585,538.858,0.0
52640.0,STARLINK-3977,PAYLOAD,2024-07-04 04:01:43,15.08839698,0.000128,53.2159,133.3583,95.1089,265.0049,4.2247e-05,3.85e-06,0.0,0 STARLINK-3977,1 52640U 22052AU  24186.16786827  .00000385  00000-0  42247-4 0  9993,2 52640  53.2159 133.3583 0001280  95.1089 265.0049 15.08839698118882,6917.881,95.438,540.632,538.861,0.0
52640.0,STARLINK-3977,PAYLOAD,2024-07-04 13:34:02,15.08843022,0.0001265,53.2157,131.5705,79.4688,280.6447,5.5864e-05,6.01e-06,0.0,0 STARLINK-3977,1 52640U 22052AU  24186.56530501  .00000601  00000-0  55864-4 0  9993,2 52640  53.2157 131.5705 0001265  79.4688 280.6447 15.08843022118565,6917.871,95.437,540.611,538.861,0.0
52640.0,STARLINK-3977,PAYLOAD,2024-07-05 13:24:49,15.08848702,0.0001295,53.2156,127.1148,77.1233,282.9904,-2.7968e-05,-7.33e-06,0.0,0 STARLINK-3977,1 52640U 22052AU  24187.55890334 -.00000733  00000-0 -27968-4 0  9998,2 52640  53.2156 127.1148 0001295  77.1233 282.9904 15.08848702118710,6917.854,95.437,540.615,538.823,0.0
52640.0,STARLINK-3977,PAYLOAD,2024-07-06 02:07:54,15.08841792,0.0001302,53.2161,124.7306,102.2188,257.895,2.4048e-05,9.5e-07,0.0,0 STARLINK-3977,1 52640U 22052AU  24188.08882742  .00000095  00000-0  24048-4 0  9996,2 52640  53.2161 124.7306 0001302 102.2188 257.8950 15.08841792119178,6917.875,95.437,540.641,538.839,0.0
52640.0,STARLINK-3977,PAYLOAD,2024-07-06 13:15:37,15.08834599,0.0001474,53.2167,122.6449,109.2025,250.9127,-5.3366e-06,-3.73e-06,0.0,0 STARLINK-3977,1 52640U 22052AU  24188.55251176 -.00000373  00000-0 -53366-5 0  9996,2 52640  53.2167 122.6449 0001474 109.2025 250.9127 15.08834599118868,6917.897,95.438,540.782,538.742,0.0
52640.0,STARLINK-3977,PAYLOAD,2024-07-06 19:37:09,15.0883296,0.0001501,53.2183,121.4572,99.8922,260.2239,-2.4691e-05,-6.81e-06,0.0,0 STARLINK-3977,1 52640U 22052AU  24188.81747472 -.00000681  00000-0 -24691-4 0  9994,2 52640  53.2183 121.4572 0001501  99.8922 260.2239 15.08832960119286,6917.902,95.438,540.805,538.729,0.0
52640.0,STARLINK-3977,PAYLOAD,2024-07-06 22:47:56,15.08831412,0.000149,53.2162,120.8706,77.2202,282.8957,5.8803e-06,-1.94e-06,0.0,0 STARLINK-3977,1 52640U 22052AU  24188.94995664 -.00000194  00000-0  58803-5 0  9997,2 52640  53.2162 120.8706 0001490  77.2202 282.8957 15.08831412118921,6917.907,95.438,540.802,538.741,0.0
52640.0,STARLINK-3977,PAYLOAD,2024-07-07 01:58:42,15.08837901,0.0001465,53.2167,120.2722,94.586,265.5299,1.193e-05,-9.8e-07,0.0,0 STARLINK-3977,1 52640U 22052AU  24189.08243177 -.00000098  00000-0  11930-4 0  9990,2 52640  53.2167 120.2722 0001465  94.5860 265.5299 15.08837901118940,6917.887,95.438,540.765,538.738,0.0
52640.0,STARLINK-3977,PAYLOAD,2024-07-07 19:27:56,15.08837697,0.0001229,53.2165,117.0012,96.1999,263.9133,9.8812e-05,1.285e-05,0.0,0 STARLINK-3977,1 52640U 22052AU  24189.81106920  .00001285  00000-0  98812-4 0  9997,2 52640  53.2165 117.0012 0001229  96.1999 263.9133 15.08837697119439,6917.887,95.438,540.603,538.902,0.0
52640.0,STARLINK-3977,PAYLOAD,2024-07-08 11:21:47,15.0884469,0.0001429,53.2161,114.0262,101.171,258.9443,7.0876e-05,8.4e-06,0.0,0 STARLINK-3977,1 52640U 22052AU  24190.47346607  .00000840  00000-0  70876-4 0  9995,2 52640  53.2161 114.0262 0001429 101.1710 258.9443 15.08844690119157,6917.866,95.437,540.72,538.742,0.0
52640.0,STARLINK-3977,PAYLOAD,2024-07-08 22:29:30,15.088356,0.0001632,53.2176,111.9494,91.0771,269.0408,9.7211e-05,1.259e-05,0.0,0 STARLINK-3977,1 52640U 22052AU  24190.93715447  .00001259  00000-0  97211-4 0  9995,2 52640  53.2176 111.9494 0001632  91.0771 269.0408 15.08835600119229,6917.894,95.438,540.888,538.63,0.0
52640.0,STARLINK-3977,PAYLOAD,2024-07-09 04:51:02,15.0884173,0.0001524,53.2162,110.7582,92.4582,267.6585,0.00010769,1.426e-05,0.0,0 STARLINK-3977,1 52640U 22052AU  24191.20211050  .00001426  00000-0  10769-3 0  9995,2 52640  53.2162 110.7582 0001524  92.4582 267.6585 15.08841730119641,6917.875,95.437,540.794,538.686,0.0
52640.0,STARLINK-3977,PAYLOAD,2024-07-09 11:12:35,15.08828879,0.000103,53.2167,109.5666,101.7137,258.3971,-0.00011014,-2.04e-05,0.0,0 STARLINK-3977,1 52640U 22052AU  24191.46707630 -.00002040  00000-0 -11014-3 0  9996,2 52640  53.2167 109.5666 0001030 101.7137 258.3971 15.08828879119686,6917.914,95.438,540.492,539.067,0.0
52640.0,STARLINK-3977,PAYLOAD,2024-07-09 22:20:17,15.08830135,0.0001301,53.2157,107.4855,86.4334,273.6807,-0.00013942,-2.505e-05,0.0,0 STARLINK-3977,1 52640U 22052AU  24191.93075949 -.00002505  00000-0 -13942-3 0  9997,2 52640  53.2157 107.4855 0001301  86.4334 273.6807 15.08830135119373,6917.911,95.438,540.676,538.876,0.0
52640.0,STARLINK-3977,PAYLOAD,2024-07-10 11:03:22,15.08840283,0.0001433,53.2159,105.1085,98.506,261.6095,-3.8712e-06,-3.5e-06,0.0,0 STARLINK-3977,1 52640U 22052AU  24192.46067574 -.00000350  00000-0 -38712-5 0  9991,2 52640  53.2159 105.1085 0001433  98.5060 261.6095 15.08840283119833,6917.88,95.438,540.736,538.753,0.0
52640.0,STARLINK-3977,PAYLOAD,2024-07-10 22:11:04,15.08837702,0.0001418,53.2153,103.0262,92.7359,267.3795,0.00017368,2.477e-05,0.0,0 STARLINK-3977,1 52640U 22052AU  24192.92436009  .00002477  00000-0  17368-3 0  9997,2 52640  53.2153 103.0262 0001418  92.7359 267.3795 15.08837702119529,6917.887,95.438,540.733,538.771,0.0
52640.0,STARLINK-3977,PAYLOAD,2024-07-11 02:57:13,15.08850993,0.0001489,53.2154,102.1348,102.4569,257.659,0.00048121,7.381e-05,0.0,0 STARLINK-3977,1 52640U 22052AU  24193.12307633  .00007381  00000-0  48121-3 0  9990,2 52640  53.2154 102.1348 0001489 102.4569 257.6590 15.08850993119550,6917.847,95.437,540.742,538.682,0.0
52640.0,STARLINK-3977,PAYLOAD,2024-07-11 17:15:42,15.08845236,0.000171,53.2159,99.4566,112.1938,247.9236,0.00019587,2.831e-05,0.0,0 STARLINK-3977,1 52640U 22052AU  24193.71923626  .00002831  00000-0  19587-3 0  9990,2 52640  53.2159  99.4566 0001710 112.1938 247.9236 15.08845236120027,6917.864,95.437,540.912,538.546,0.0
52640.0,STARLINK-3977,PAYLOAD,2024-07-12 10:44:56,15.08845173,0.0001446,53.2159,96.1869,84.2982,275.8175,0.00015263,2.142e-05,0.0,0 STARLINK-3977,1 52640U 22052AU  24194.44787697  .00002142  00000-0  15263-3 0  9999,2 52640  53.2159  96.1869 0001446  84.2982 275.8175 15.08845173119751,6917.865,95.437,540.73,538.729,0.0
